NORAD_CAT_ID,OBJECT_NAME,OBJECT_TYPE,EPOCH,MEAN_MOTION,ECCENTRICITY,INCLINATION,RA_OF_ASC_NODE,ARG_OF_PERICENTER,MEAN_ANOMALY,BSTAR,MEAN_MOTION_DOT,MEAN_MOTION_DDOT,TLE_LINE0,TLE_LINE1,TLE_LINE2,SEMIMAJOR_AXIS,PERIOD,APOGEE,PERIGEE,DECAYED
53622.0,STARLINK-4568,PAYLOAD,2024-08-18 08:52:27,15.08846107,0.0001454,53.2152,265.0094,91.489,268.6269,0.00012632,1.723e-05,0.0,0 STARLINK-4568,1 53622U 22104AL  24231.36976318  .00001723  00000-0  12632-3 0  9992,2 53622  53.2152 265.0094 0001454  91.4890 268.6269 15.08846107109952,6917.862,95.437,540.733,538.721,0.0
53622.0,STARLINK-4568,PAYLOAD,2024-08-19 11:54:01,15.08836753,0.0001404,53.2158,259.954,94.8058,265.3095,2.561e-05,1.2e-06,0.0,0 STARLINK-4568,1 53622U 22104AL  24232.49584726  .00000120  00000-0  25610-4 0  9996,2 53622  53.2158 259.9540 0001404  94.8058 265.3095 15.08836753109445,6917.89,95.438,540.727,538.784,0.0
53622.0,STARLINK-4568,PAYLOAD,2024-08-20 08:34:02,15.08837429,0.0001325,53.2154,256.0889,92.9725,267.1419,1.6592e-06,-2.61e-06,0.0,0 STARLINK-4568,1 53622U 22104AL  24233.35696900 -.00000261  00000-0  16592-5 0  9997,2 53622  53.2154 256.0889 0001325  92.9725 267.1419 15.08837429110259,6917.888,95.438,540.67,538.837,0.0
53622.0,STARLINK-4568,PAYLOAD,2024-08-21 05:14:02,15.08836335,0.0001293,53.2153,252.2228,91.9485,268.1655,8.3886e-05,1.047e-05,0.0,0 STARLINK-4568,1 53622U 22104AL  24234.21808940  .00001047  00000-0  83886-4 0  9993,2 53622  53.2153 252.2228 0001293  91.9485 268.1655 15.08836335109705,6917.892,95.438,540.651,538.862,0.0
53622.0,STARLINK-4568,PAYLOAD,2024-08-21 06:49:26,15.0883687,0.0001297,53.2153,251.9254,91.9169,268.1972,8.7405e-05,1.103e-05,0.0,0 STARLINK-4568,1 53622U 22104AL  24234.28432918  .00001103  00000-0  87405-4 0  9992,2 53622  53.2153 251.9254 0001297  91.9169 268.1972 15.08836870110396,6917.89,95.438,540.652,538.858,0.0
